[{"OBJECT_NAME":"SWAS","OBJECT_ID":"1998-071A","EPOCH":"2026-03-09T12:50:12.826752","MEAN_MOTION":15.08888192,"ECCENTRICITY":0.00040991,"INCLINATION":69.8952,"RA_OF_ASC_NODE":124.3662,"ARG_OF_PERICENTER":14.3215,"MEAN_ANOMALY":345.8065,"EPHEMERIS_TYPE":0,"CLASSIFICATION_TYPE":"U","NORAD_CAT_ID":25560,"ELEMENT_SET_NO":999,"REV_AT_EPOCH":48223,"BSTAR":0.00029986322,"MEAN_MOTION_DOT":4.636e-5,"MEAN_MOTION_DDOT":0},{"OBJECT_NAME":"STARLINK-4257","OBJECT_ID":"2022-083BE","EPOCH":"2026-03-09T12:56:42.368064","MEAN_MOTION":15.08836838,"ECCENTRICITY":0.00014728,"INCLINATION":53.217,"RA_OF_ASC_NODE":124.3802,"ARG_OF_PERICENTER":97.3299,"MEAN_ANOMALY":262.7861,"EPHEMERIS_TYPE":0,"CLASSIFICATION_TYPE":"U","NORAD_CAT_ID":53184,"ELEMENT_SET_NO":999,"REV_AT_EPOCH":20190,"BSTAR":2.9831513e-5,"MEAN_MOTION_DOT":1.87e-6,"MEAN_MOTION_DDOT":0}]
