SWAS                    
1 25560U 98071A   26068.53487068  .00004636  00000+0  29986-3 0  9991
2 25560  69.8952 124.3662 0004099  14.3215 345.8065 15.08888192482231
STARLINK-4257           
1 53184U 22083BE  26068.53937926  .00000187  00000+0  29832-4 0  9995
2 53184  53.2170 124.3802 0001472  97.3299 262.7861 15.08836838201908
